norad_id,name,regime,epoch,line1,line2,inclination,eccentricity,mean_motion,raan,arg_pericenter,mean_anomaly
837,OPS 3674 (VELA 4),HAO,22238.74622791,1 00837U 64040B   22238.74622791  .00000108  00000-0  00000-0 0    10\,2 00837  45.9919 148.0212 3166768 298.8232   0.7247  0.23995401 51386,45.9919,0.3166768,0.23995401,148.0212,298.8232,0.7247
837,OPS 3674 (VELA 4),HAO,22238.74622814,1 00837U 64040B   22238.74622814  .00000108  00000-0  00000-0 0    16\,2 00837  45.9931 148.0181 3167285 298.8286   0.7205  0.23995251 51386,45.9931,0.3167285,0.23995251,148.0181,298.8286,0.7205
837,OPS 3674 (VELA 4),HAO,22255.39305597,1 00837U 64040B   22255.39305597  .00000074  00000-0  00000-0 0    14\,2 00837  46.0618 147.7622 3148238 297.8986   0.1748  0.23995903 51435,46.0618,0.3148238,0.23995903,147.7622,297.8986,0.1748
837,OPS 3674 (VELA 4),HAO,22255.39394178,1 00837U 64040B   22255.39394178  .00000074  00000-0  00000-0 0    17\,2 00837  46.0616 147.7626 3148385 297.8988   0.2510  0.23996018 51438,46.0616,0.3148385,0.23996018,147.7626,297.8988,0.251
837,OPS 3674 (VELA 4),HAO,22263.72463063,1   837U 64040B   22263.72463063  .00000123  00000-0  00000+0 0   983\,2   837  46.0947 147.6095 3142460 297.6635   0.3844  0.23994068 51040,46.0947,0.314246,0.23994068,147.6095,297.6635,0.3844
837,OPS 3674 (VELA 4),HAO,22263.72661080,1 00837U 64040B   22263.72661080  .00000123  00000-0  00000-0 0    17\,2 00837  46.0946 147.6101 3142211 297.6668   0.5509  0.23993979 51441,46.0946,0.3142211,0.23993979,147.6101,297.6668,0.5509
837,OPS 3674 (VELA 4),HAO,22267.88843682,1 00837U 64040B   22267.88843682  .00000329  00000-0  00000-0 0    16\,2 00837  46.1056 147.5432 3135492 297.4906   0.3630  0.23997327 51462,46.1056,0.3135492,0.23997327,147.5432,297.4906,0.363
837,OPS 3674 (VELA 4),HAO,22272.05559494,1 00837U 64040B   22272.05559494  .00000400  00000-0  00000-0 0    16\,2 00837  46.1150 147.4805 3129561 297.2470   0.7352  0.23998933 51463,46.115,0.3129561,0.23998933,147.4805,297.247,0.7352
837,OPS 3674 (VELA 4),HAO,22276.22088123,1 00837U 64040B   22276.22088123  .00000256  00000-0  00000-0 0    14\,2 00837  46.1297 147.4215 3124001 297.0005   0.9206  0.23997086 51475,46.1297,0.3124001,0.23997086,147.4215,297.0005,0.9206
837,OPS 3674 (VELA 4),HAO,22280.38131512,1 00837U 64040B   22280.38131512  .00000280  00000-0  00000-0 0    14\,2 00837  46.1538 147.3581 3122336 296.7332   0.6965  0.23995254 51481,46.1538,0.3122336,0.23995254,147.3581,296.7332,0.6965
837,OPS 3674 (VELA 4),HAO,22288.70690734,1 00837U 64040B   22288.70690734  .00000258  00000-0  00000-0 0    19\,2 00837  46.1952 147.2007 3118894 296.4662   0.3923  0.23991029 51511,46.1952,0.3118894,0.23991029,147.2007,296.4662,0.3923
837,OPS 3674 (VELA 4),HAO,22292.87221211,1 00837U 64040B   22292.87221211  .00000438  00000-0  00000-0 0    12\,2 00837  46.2144 147.1326 3113403 296.3299   0.4621  0.23996216 51513,46.2144,0.3113403,0.23996216,147.1326,296.3299,0.4621
837,OPS 3674 (VELA 4),HAO,22297.03803057,1 00837U 64040B   22297.03803057  .00000626  00000-0  00000-0 0    18\,2 00837  46.2255 147.0665 3106761 296.1149   0.6799  0.23998943 51520,46.2255,0.3106761,0.23998943,147.0665,296.1149,0.6799
837,OPS 3674 (VELA 4),HAO,22301.20176585,1 00837U 64040B   22301.20176585  .00000572  00000-0  00000-0 0    12\,2 00837  46.2382 147.0018 3101262 295.8647   0.7506  0.23997765 51532,46.2382,0.3101262,0.23997765,147.0018,295.8647,0.7506
837,OPS 3674 (VELA 4),HAO,22309.52317126,1   837U 64040B   22309.52317126  .00000499  00000-0  00000+0 0  1077\,2   837  46.2881 146.8749 3098271 295.3688   0.3183  0.23994566 51150,46.2881,0.3098271,0.23994566,146.8749,295.3688,0.3183
837,OPS 3674 (VELA 4),HAO,22309.52355792,1 00837U 64040B   22309.52355792  .00000500  00000-0  00000-0 0    15\,2 00837  46.2887 146.8764 3100361 295.4392   0.3185  0.23994531 51558,46.2887,0.3100361,0.23994531,146.8764,295.4392,0.3185
837,OPS 3674 (VELA 4),HAO,22317.85019197,1 00837U 64040B   22317.85019197  .00000480  00000-0  00000-0 0    13\,2 00837  46.3274 146.7176 3094012 295.1390   0.1075  0.23993478 51572,46.3274,0.3094012,0.23993478,146.7176,295.139,0.1075
837,OPS 3674 (VELA 4),HAO,22322.01726469,1 00837U 64040B   22322.01726469  .00000668  00000-0  00000-0 0    12\,2 00837  46.3429 146.6519 3088306 294.9629   0.3703  0.23997078 51586,46.3429,0.3088306,0.23997078,146.6519,294.9629,0.3703
837,OPS 3674 (VELA 4),HAO,22322.01743103,1   837U 64040B   22322.01743103  .00000668  00000-0  00000+0 0  1106\,2   837  46.3434 146.6515 3089379 294.9966   0.3685  0.23997066 51185,46.3434,0.3089379,0.23997066,146.6515,294.9966,0.3685
837,OPS 3674 (VELA 4),HAO,22330.34352516,1 00837U 64040B   22330.34352516  .00000587  00000-0  00000-0 0    15\,2 00837  46.3728 146.5272 3077914 294.4391   0.4277  0.23997566 51609,46.3728,0.3077914,0.23997566,146.5272,294.4391,0.4277
837,OPS 3674 (VELA 4),HAO,22351.15916552,1   837U 64040B   22351.15916552  .00000645  00000-0  00000+0 0  1131\,2   837  46.4766 146.1787 3065601 293.5182   0.0308  0.23997683 51259,46.4766,0.3065601,0.23997683,146.1787,293.5182,0.0308
837,OPS 3674 (VELA 4),HAO,22355.32132490,1 00837U 64040B   22355.32132490  .00000583  00000-0  00000-0 0    13\,2 00837  46.4897 146.1182 3060907 293.2428 359.9777  0.23997960 51677,46.4897,0.3060907,0.2399796,146.1182,293.2428,359.9777
837,OPS 3674 (VELA 4),HAO,22363.65159212,1 00837U 64040B   22363.65159212  .00000373  00000-0  00000-0 0    16\,2 00837  46.5376 145.9956 3060776 292.6989   0.3591  0.23994201 51682,46.5376,0.3060776,0.23994201,145.9956,292.6989,0.3591
837,OPS 3674 (VELA 4),HAO,23015.30840683,1   837U 64040B   23015.30840683  .00000432  00000-0  00000+0 0  1164,2   837  46.5975 145.7235 3049682 291.9989   0.3955  0.23998346 51329,46.5975,0.3049682,0.23998346,145.7235,291.9989,0.3955
837,OPS 3674 (VELA 4),HAO,23015.30877528,1 00837U 64040B   23015.30877528  .00000432  00000-0  00000-0 0    16,2 00837  46.5982 145.7215 3049632 292.0001   0.4300  0.23998284 51727,46.5982,0.3049632,0.23998284,145.7215,292.0001,0.43
837,OPS 3674 (VELA 4),HAO,23019.47326281,1 00837U 64040B   23019.47326281  .00000267  00000-0  00000-0 0    19,2 00837  46.6097 145.6654 3046596 291.7172   0.5692  0.23996921 51745,46.6097,0.3046596,0.23996921,145.6654,291.7172,0.5692
837,OPS 3674 (VELA 4),HAO,23031.95921810,1 00837U 64040B   23031.95921810 -.00000019  00000-0  00000-0 0    11,2 00837  46.6709 145.4574 3048957 291.0875   0.1072  0.23990288 51771,46.6709,0.3048957,0.23990288,145.4574,291.0875,0.1072
837,OPS 3674 (VELA 4),HAO,23040.29441914,1 00837U 64040B   23040.29441914  .00000242  00000-0  00000-0 0    17,2 00837  46.6965 145.3281 3041923 290.7246   0.7536  0.23998109 51796,46.6965,0.3041923,0.23998109,145.3281,290.7246,0.7536
837,OPS 3674 (VELA 4),HAO,23044.45619091,1 00837U 64040B   23044.45619091  .00000248  00000-0  00000-0 0    18,2 00837  46.7042 145.2683 3039403 290.4549   0.6846  0.23998897 51800,46.7042,0.3039403,0.23998897,145.2683,290.4549,0.6846
837,OPS 3674 (VELA 4),HAO,23052.78175836,1   837U 64040B   23052.78175836  .00000086  00000-0  00000+0 0  1220,2   837  46.7340 145.1481 3042446 289.8901   0.6855  0.23992737 51415,46.734,0.3042446,0.23992737,145.1481,289.8901,0.6855
837,OPS 3674 (VELA 4),HAO,23056.94271889,1 00837U 64040B   23056.94271889 -.00000016  00000-0  00000-0 0    18,2 00837  46.7470 145.0696 3043325 289.7231   0.3739  0.23989173 51821,46.747,0.3043325,0.23989173,145.0696,289.7231,0.3739
837,OPS 3674 (VELA 4),HAO,23056.94274117,1 00837U 64040B   23056.94274117 -.00000016  00000-0  00000-0 0    15,2 00837  46.7470 145.0695 3043527 289.7235   0.3739  0.23989175 51820,46.747,0.3043527,0.23989175,145.0695,289.7235,0.3739
837,OPS 3674 (VELA 4),HAO,23061.10592407,1   837U 64040B   23061.10592407 -.00000032  00000-0  00000+0 0  1258,2   837  46.7660 144.9927 3043039 289.6261   0.2259  0.23992313 51434,46.766,0.3043039,0.23992313,144.9927,289.6261,0.2259
837,OPS 3674 (VELA 4),HAO,23069.43806263,1 00837U 64040B   23069.43806263  .00000319  00000-0  00000-0 0    11,2 00837  46.7840 144.8647 3037542 289.1902   0.6753  0.23997960 51853,46.784,0.3037542,0.2399796,144.8647,289.1902,0.6753
837,OPS 3674 (VELA 4),HAO,23073.60047797,1 00837U 64040B   23073.60047797  .00000247  00000-0  00000-0 0    14,2 00837  46.7935 144.8062 3036252 288.9280   0.6280  0.23996890 51870,46.7935,0.3036252,0.2399689,144.8062,288.928,0.628
837,OPS 3674 (VELA 4),HAO,23073.60047938,1 00837U 64040B   23073.60047938  .00000247  00000-0  00000-0 0    11,2 00837  46.7935 144.8062 3036266 288.9279   0.6280  0.23996889 51871,46.7935,0.3036266,0.23996889,144.8062,288.9279,0.628
837,OPS 3674 (VELA 4),HAO,23094.41959712,1 00837U 64040B   23094.41959712  .00000418  00000-0  00000-0 0    15,2 00837  46.8752 144.4548 3039730 287.9772   0.6310  0.23998258 51922,46.8752,0.303973,0.23998258,144.4548,287.9772,0.631
837,OPS 3674 (VELA 4),HAO,23098.58016969,1 00837U 64040B   23098.58016969  .00000509  00000-0  00000-0 0    16,2 00837  46.8845 144.3937 3038386 287.7147   0.4546  0.23998667 51929,46.8845,0.3038386,0.23998667,144.3937,287.7147,0.4546
837,OPS 3674 (VELA 4),HAO,23102.74272692,1 00837U 64040B   23102.74272692  .00000392  00000-0  00000-0 0    17,2 00837  46.8995 144.3388 3038818 287.4485   0.4296  0.23997599 51933,46.8995,0.3038818,0.23997599,144.3388,287.4485,0.4296
837,OPS 3674 (VELA 4),HAO,23115.23065992,1 00837U 64040B   23115.23065992  .00000288  00000-0  00000-0 0    12,2 00837  46.9566 144.1197 3045436 286.9405   0.0168  0.23992412 51960,46.9566,0.3045436,0.23992412,144.1197,286.9405,0.0168
837,OPS 3674 (VELA 4),HAO,23119.39314074,1 00837U 64040B   23119.39314074  .00000468  00000-0  00000-0 0    11,2 00837  46.9744 144.0504 3043618 286.7591 359.8875  0.23997705 51985,46.9744,0.3043618,0.23997705,144.0504,286.7591,359.8875
837,OPS 3674 (VELA 4),HAO,23127.72131545,1 00837U 64040B   23127.72131545  .00000618  00000-0  00000-0 0    14,2 00837  46.9964 143.9318 3041046 286.2370   0.1261  0.23997963 52008,46.9964,0.3041046,0.23997963,143.9318,286.237,0.1261
